start=new Date('2023-01-05T00:00:00.000Z').valueOf();
sats=[{"SITE":"AFETR","TLE_LINE2":"2 52298  53.2140 269.6387 0001784  46.6119 313.5021 15.08834479 39287","GP_ID":"222160104","CENTER_NAME":"EARTH","REF_FRAME":"TEME","RA_OF_ASC_NODE":"269.6387","REV_AT_EPOCH":"3928","COUNTRY_CODE":"US","INCLINATION":"53.2140","LAUNCH_DATE":"2022-04-21","MEAN_ELEMENT_THEORY":"SGP4","EPOCH":"2023-01-04T00:09:18.630432","TIME_SYSTEM":"UTC","OBJECT_ID":"2022-041AP","PERIAPSIS":"538.528","MEAN_MOTION":"15.08834479","FILE":"3731823","MEAN_MOTION_DDOT":"0.0000000000000","RCS_SIZE":"LARGE","APOAPSIS":"540.996","TLE_LINE1":"1 52298U 22041AP  23004.00646563  .00000815  00000-0  69330-4 0  9993","OBJECT_TYPE":"PAYLOAD","ARG_OF_PERICENTER":"46.6119","SEMIMAJOR_AXIS":"6917.897","OBJECT_NAME":"STARLINK-3760","ECCENTRICITY":"0.00017840","PERIOD":"95.438","MEAN_MOTION_DOT":"0.00000815","BSTAR":"0.00006933000000","EPHEMERIS_TYPE":"0","MEAN_ANOMALY":"313.5021","ELEMENT_SET_NO":"999","NORAD_CAT_ID":"52298","DECAY_DATE":null,"CLASSIFICATION_TYPE":"U"},{"TIME_SYSTEM":"UTC","INCLINATION":"53.2192","LAUNCH_DATE":"2022-04-21","MEAN_ELEMENT_THEORY":"SGP4","EPOCH":"2023-01-04T03:30:40.230144","PERIAPSIS":"537.943","OBJECT_ID":"2022-041AQ","MEAN_MOTION_DDOT":"0.0000000000000","FILE":"3731823","MEAN_MOTION":"15.08817429","SITE":"AFETR","TLE_LINE2":"2 52299  53.2192 269.0127 0002705  24.2760 335.8360 15.08817429 39301","GP_ID":"222160354","CENTER_NAME":"EARTH","REF_FRAME":"TEME","REV_AT_EPOCH":"3930","RA_OF_ASC_NODE":"269.0127","COUNTRY_CODE":"US","MEAN_MOTION_DOT":"0.00000410","PERIOD":"95.439","MEAN_ANOMALY":"335.8360","BSTAR":"0.00004388800000","EPHEMERIS_TYPE":"0","ELEMENT_SET_NO":"999","NORAD_CAT_ID":"52299","DECAY_DATE":null,"CLASSIFICATION_TYPE":"U","RCS_SIZE":"LARGE","APOAPSIS":"541.686","TLE_LINE1":"1 52299U 22041AQ  23004.14629896  .00000410  00000-0  43888-4 0  9990","ARG_OF_PERICENTER":"24.2760","SEMIMAJOR_AXIS":"6917.949","OBJECT_TYPE":"PAYLOAD","ECCENTRICITY":"0.00027050","OBJECT_NAME":"STARLINK-3759"},{"RCS_SIZE":"LARGE","APOAPSIS":"542.025","TLE_LINE1":"1 52300U 22041AR  23004.46279282  .00001978  00000-0  14240-3 0  9997","OBJECT_TYPE":"PAYLOAD","ARG_OF_PERICENTER":"23.4326","SEMIMAJOR_AXIS":"6917.896","OBJECT_NAME":"STARLINK-3769","ECCENTRICITY":"0.00032720","PERIOD":"95.438","MEAN_MOTION_DOT":"0.00001978","BSTAR":"0.00014240000000","EPHEMERIS_TYPE":"0","MEAN_ANOMALY":"336.6815","ELEMENT_SET_NO":"999","NORAD_CAT_ID":"52300","DECAY_DATE":null,"CLASSIFICATION_TYPE":"U","SITE":"AFETR","TLE_LINE2":"2 52300  53.2160 267.5943 0003272  23.4326 336.6815 15.08834813 40578","GP_ID":"222160605","CENTER_NAME":"EARTH","REF_FRAME":"TEME","RA_OF_ASC_NODE":"267.5943","REV_AT_EPOCH":"4057","COUNTRY_CODE":"US","LAUNCH_DATE":"2022-04-21","EPOCH":"2023-01-04T11:06:25.299648","INCLINATION":"53.2160","MEAN_ELEMENT_THEORY":"SGP4","TIME_SYSTEM":"UTC","OBJECT_ID":"2022-041AR","PERIAPSIS":"537.498","MEAN_MOTION":"15.08834813","MEAN_MOTION_DDOT":"0.0000000000000","FILE":"3731823"},{"SITE":"AFETR","TLE_LINE2":"2 52301  53.2159 267.8104 0002863  25.5126 334.6007 15.08849840 39345","GP_ID":"222160848","CENTER_NAME":"EARTH","REF_FRAME":"TEME","REV_AT_EPOCH":"3934","RA_OF_ASC_NODE":"267.8104","COUNTRY_CODE":"US","INCLINATION":"53.2159","LAUNCH_DATE":"2022-04-21","EPOCH":"2023-01-04T09:57:31.254912","MEAN_ELEMENT_THEORY":"SGP4","TIME_SYSTEM":"UTC","OBJECT_ID":"2022-041AS","PERIAPSIS":"537.735","MEAN_MOTION":"15.08849840","FILE":"3731823","MEAN_MOTION_DDOT":"0.0000000000000","RCS_SIZE":"LARGE","APOAPSIS":"541.696","TLE_LINE1":"1 52301U 22041AS  23004.41494508  .00006052  00000-0  39791-3 0  9999","OBJECT_TYPE":"PAYLOAD","SEMIMAJOR_AXIS":"6917.850","ARG_OF_PERICENTER":"25.5126","OBJECT_NAME":"STARLINK-3768","ECCENTRICITY":"0.00028630","PERIOD":"95.437","MEAN_MOTION_DOT":"0.00006052","BSTAR":"0.00039791000000","EPHEMERIS_TYPE":"0","MEAN_ANOMALY":"334.6007","ELEMENT_SET_NO":"999","NORAD_CAT_ID":"52301","DECAY_DATE":null,"CLASSIFICATION_TYPE":"U"},{"DECAY_DATE":null,"CLASSIFICATION_TYPE":"U","ELEMENT_SET_NO":"999","NORAD_CAT_ID":"52302","MEAN_ANOMALY":"324.1971","BSTAR":"0.00020789000000","EPHEMERIS_TYPE":"0","MEAN_MOTION_DOT":"0.00003022","PERIOD":"95.438","ECCENTRICITY":"0.00019890","OBJECT_NAME":"STARLINK-3564","ARG_OF_PERICENTER":"35.9154","SEMIMAJOR_AXIS":"6917.892","OBJECT_TYPE":"PAYLOAD","APOAPSIS":"541.133","TLE_LINE1":"1 52302U 22041AT  23003.98899550  .00003022  00000-0  20789-3 0  9998","RCS_SIZE":"LARGE","MEAN_MOTION_DDOT":"0.0000000000000","FILE":"3731823","MEAN_MOTION":"15.08836283","PERIAPSIS":"538.381","OBJECT_ID":"2022-041AT","TIME_SYSTEM":"UTC","LAUNCH_DATE":"2022-04-21","INCLINATION":"53.2161","EPOCH":"2023-01-03T23:44:09.211200","MEAN_ELEMENT_THEORY":"SGP4","COUNTRY_CODE":"US","REF_FRAME":"TEME","REV_AT_EPOCH":"3941","RA_OF_ASC_NODE":"259.7052","GP_ID":"222159604","CENTER_NAME":"EARTH","SITE":"AFETR","TLE_LINE2":"2 52302  53.2161 259.7052 0001989  35.9154 324.1971 15.08836283 39414"},{"RCS_SIZE":"LARGE","TLE_LINE1":"1 52303U 22041AU  23004.00278789  .00000523  00000-0  50973-4 0  9990","APOAPSIS":"541.316","ARG_OF_PERICENTER":"34.7189","SEMIMAJOR_AXIS":"6917.892","OBJECT_TYPE":"PAYLOAD","ECCENTRICITY":"0.00022540","OBJECT_NAME":"STARLINK-3742","MEAN_MOTION_DOT":"0.00000523","PERIOD":"95.438","MEAN_ANOMALY":"325.3950","BSTAR":"0.00005097300000","EPHEMERIS_TYPE":"0","NORAD_CAT_ID":"52303","ELEMENT_SET_NO":"999","CLASSIFICATION_TYPE":"U","DECAY_DATE":null,"TLE_LINE2":"2 52303  53.2174 269.6538 0002254  34.7189 325.3950 15.08836320 40503","SITE":"AFETR","CENTER_NAME":"EARTH","GP_ID":"222159854","RA_OF_ASC_NODE":"269.6538","REV_AT_EPOCH":"4050","REF_FRAME":"TEME","COUNTRY_CODE":"US","TIME_SYSTEM":"UTC","INCLINATION":"53.2174","LAUNCH_DATE":"2022-04-21","MEAN_ELEMENT_THEORY":"SGP4","EPOCH":"2023-01-04T00:04:00.873696","PERIAPSIS":"538.197","OBJECT_ID":"2022-041AU","MEAN_MOTION_DDOT":"0.0000000000000","FILE":"3731823","MEAN_MOTION":"15.08836320"},{"TLE_LINE1":"1 52304U 22041AV  23003.91906508 -.00000584  00000-0 -18557-4 0  9998","APOAPSIS":"541.511","RCS_SIZE":"LARGE","OBJECT_NAME":"STARLINK-3744","ECCENTRICITY":"0.00025000","ARG_OF_PERICENTER":"27.3710","SEMIMAJOR_AXIS":"6917.916","OBJECT_TYPE":"PAYLOAD","MEAN_ANOMALY":"332.7413","BSTAR":"-0.00001855700000","EPHEMERIS_TYPE":"0","MEAN_MOTION_DOT":"-0.00000584","PERIOD":"95.438","CLASSIFICATION_TYPE":"U","DECAY_DATE":null,"NORAD_CAT_ID":"52304","ELEMENT_SET_NO":"999","CENTER_NAME":"EARTH","GP_ID":"222161105","TLE_LINE2":"2 52304  53.2178 260.0284 0002500  27.3710 332.7413 15.08828267 39407","SITE":"AFETR","COUNTRY_CODE":"US","RA_OF_ASC_NODE":"260.0284","REV_AT_EPOCH":"3940","REF_FRAME":"TEME","TIME_SYSTEM":"UTC","INCLINATION":"53.2178","LAUNCH_DATE":"2022-04-21","MEAN_ELEMENT_THEORY":"SGP4","EPOCH":"2023-01-03T22:03:27.222912","FILE":"3731823","MEAN_MOTION_DDOT":"0.0000000000000","MEAN_MOTION":"15.08828267","PERIAPSIS":"538.052","OBJECT_ID":"2022-041AV"},{"GP_ID":"222161349","CENTER_NAME":"EARTH","SITE":"AFETR","TLE_LINE2":"2 52305  53.2145 267.6017 0001772  53.7203 306.3953 15.08849344 39358","COUNTRY_CODE":"US","REF_FRAME":"TEME","RA_OF_ASC_NODE":"267.6017","REV_AT_EPOCH":"3935","LAUNCH_DATE":"2022-04-21","INCLINATION":"53.2145","EPOCH":"2023-01-04T11:02:29.482080","MEAN_ELEMENT_THEORY":"SGP4","TIME_SYSTEM":"UTC","MEAN_MOTION":"15.08849344","MEAN_MOTION_DDOT":"0.0000000000000","FILE":"3731823","OBJECT_ID":"2022-041AW","PERIAPSIS":"538.491","APOAPSIS":"540.943","TLE_LINE1":"1 52305U 22041AW  23004.46006345  .00006676  00000-0  43706-3 0  9999","RCS_SIZE":"MEDIUM","ECCENTRICITY":"0.00017720","OBJECT_NAME":"STARLINK-3724","OBJECT_TYPE":"PAYLOAD","ARG_OF_PERICENTER":"53.7203","SEMIMAJOR_AXIS":"6917.852","BSTAR":"0.00043706000000","EPHEMERIS_TYPE":"0","MEAN_ANOMALY":"306.3953","PERIOD":"95.437","MEAN_MOTION_DOT":"0.00006676","DECAY_DATE":null,"CLASSIFICATION_TYPE":"U","ELEMENT_SET_NO":"999","NORAD_CAT_ID":"52305"},{"ELEMENT_SET_NO":"999","NORAD_CAT_ID":"52306","DECAY_DATE":null,"CLASSIFICATION_TYPE":"U","PERIOD":"95.438","MEAN_MOTION_DOT":"-0.00000156","BSTAR":"0.00000830950000","EPHEMERIS_TYPE":"0","MEAN_ANOMALY":"325.6416","OBJECT_TYPE":"PAYLOAD","SEMIMAJOR_AXIS":"6917.904","ARG_OF_PERICENTER":"34.4735","OBJECT_NAME":"STARLINK-3747","ECCENTRICITY":"0.00024520","RCS_SIZE":"LARGE","APOAPSIS":"541.465","TLE_LINE1":"1 52306U 22041AX  23003.98162836 -.00000156  00000-0  83095-5 0  9999","OBJECT_ID":"2022-041AX","PERIAPSIS":"538.073","MEAN_MOTION":"15.08832264","FILE":"3731823","MEAN_MOTION_DDOT":"0.0000000000000","LAUNCH_DATE":"2022-04-21","INCLINATION":"53.2181","EPOCH":"2023-01-03T23:33:32.690304","MEAN_ELEMENT_THEORY":"SGP4","TIME_SYSTEM":"UTC","REF_FRAME":"TEME","RA_OF_ASC_NODE":"259.7390","REV_AT_EPOCH":"4063","COUNTRY_CODE":"US","SITE":"AFETR","TLE_LINE2":"2 52306  53.2181 259.7390 0002452  34.4735 325.6416 15.08832264 40631","GP_ID":"222160105","CENTER_NAME":"EARTH"},{"EPOCH":"2023-01-04T11:01:06.735072","LAUNCH_DATE":"2022-04-21","INCLINATION":"53.2143","MEAN_ELEMENT_THEORY":"SGP4","TIME_SYSTEM":"UTC","OBJECT_ID":"2022-041AY","PERIAPSIS":"538.125","MEAN_MOTION":"15.08845570","MEAN_MOTION_DDOT":"0.0000000000000","FILE":"3731823","TLE_LINE2":"2 52307  53.2143 267.6111 0002317  19.0194 341.0884 15.08845570 39359","SITE":"AFETR","CENTER_NAME":"EARTH","GP_ID":"222160355","RA_OF_ASC_NODE":"267.6111","REV_AT_EPOCH":"3935","REF_FRAME":"TEME","COUNTRY_CODE":"US","PERIOD":"95.437","MEAN_MOTION_DOT":"0.00010516","EPHEMERIS_TYPE":"0","BSTAR":"0.00067772000000","MEAN_ANOMALY":"341.0884","NORAD_CAT_ID":"52307","ELEMENT_SET_NO":"999","CLASSIFICATION_TYPE":"U","DECAY_DATE":null,"RCS_SIZE":"LARGE","TLE_LINE1":"1 52307U 22041AY  23004.45910573  .00010516  00000-0  67772-3 0  9994","APOAPSIS":"541.331","OBJECT_TYPE":"PAYLOAD","ARG_OF_PERICENTER":"19.0194","SEMIMAJOR_AXIS":"6917.863","ECCENTRICITY":"0.00023170","OBJECT_NAME":"STARLINK-3755"}];
